NORAD_CAT_ID,OBJECT_NAME,OBJECT_TYPE,EPOCH,MEAN_MOTION,ECCENTRICITY,INCLINATION,RA_OF_ASC_NODE,ARG_OF_PERICENTER,MEAN_ANOMALY,BSTAR,MEAN_MOTION_DOT,MEAN_MOTION_DDOT,TLE_LINE0,TLE_LINE1,TLE_LINE2,SEMIMAJOR_AXIS,PERIOD,APOGEE,PERIGEE,DECAYED
52553.0,STARLINK-3858,PAYLOAD,2023-01-28 20:25:34,15.08845407,0.0001308,53.2159,188.1074,81.4624,278.6517,-0.00010341,-1.934e-05,0.0,0 STARLINK-3858,1 52553U 22051W   23028.85109620 -.00001934  00000-0 -10341-3 0  9997,2 52553  53.2159 188.1074 0001308  81.4624 278.6517 15.08845407 40049,6917.864,95.437,540.634,538.824,0.0
52553.0,STARLINK-3858,PAYLOAD,2023-01-29 10:44:04,15.08825212,0.0001211,53.216,185.4296,96.8213,263.2917,-5.6387e-05,-1.185e-05,0.0,0 STARLINK-3858,1 52553U 22051W   23029.44727067 -.00001185  00000-0 -56387-4 0  9993,2 52553  53.2160 185.4296 0001211  96.8213 263.2917 15.08825212 40130,6917.926,95.438,540.628,538.953,0.0
52553.0,STARLINK-3858,PAYLOAD,2023-01-29 20:16:23,15.08828157,0.0001228,53.2162,183.646,92.0041,268.1092,-2.5861e-05,-6.99e-06,0.0,0 STARLINK-3858,1 52553U 22051W   23029.84471101 -.00000699  00000-0 -25861-4 0  9994,2 52553  53.2162 183.6460 0001228  92.0041 268.1092 15.08828157 40128,6917.917,95.438,540.631,538.932,0.0
52553.0,STARLINK-3858,PAYLOAD,2023-01-30 08:59:27,15.08834471,0.0001251,53.217,181.2668,102.9264,257.1868,2.5635e-05,1.2e-06,0.0,0 STARLINK-3858,1 52553U 22051W   23030.37462815  .00000120  00000-0  25635-4 0  9992,2 52553  53.2170 181.2668 0001251 102.9264 257.1868 15.08834471 40276,6917.897,95.438,540.628,538.897,0.0
52553.0,STARLINK-3858,PAYLOAD,2023-01-30 10:34:50,15.08836295,0.0001191,53.2167,180.9698,96.2593,263.8535,3.5199e-05,2.72e-06,0.0,0 STARLINK-3858,1 52553U 22051W   23030.44086721  .00000272  00000-0  35199-4 0  9992,2 52553  53.2167 180.9698 0001191  96.2593 263.8535 15.08836295 40219,6917.892,95.438,540.581,538.933,0.0
52553.0,STARLINK-3858,PAYLOAD,2023-01-31 02:28:41,15.08838576,0.0001171,53.2167,177.9966,91.8264,268.2862,0.00017212,2.452e-05,0.0,0 STARLINK-3858,1 52553U 22051W   23031.10326247  .00002452  00000-0  17212-3 0  9993,2 52553  53.2167 177.9966 0001171  91.8264 268.2862 15.08838576 40381,6917.885,95.438,540.56,538.94,0.0
52553.0,STARLINK-3858,PAYLOAD,2023-01-31 10:25:38,15.08835217,0.0001198,53.2172,176.5098,100.1933,259.9194,0.00011296,1.51e-05,0.0,0 STARLINK-3858,1 52553U 22051W   23031.43446774  .00001510  00000-0  11296-3 0  9997,2 52553  53.2172 176.5098 0001198 100.1933 259.9194 15.08835217 40366,6917.895,95.438,540.589,538.931,0.0
52553.0,STARLINK-3858,PAYLOAD,2023-01-31 18:22:33,15.08839931,0.0001275,53.2182,175.0242,100.9285,259.185,0.00015752,2.22e-05,0.0,0 STARLINK-3858,1 52553U 22051W   23031.76566353  .00002220  00000-0  15752-3 0  9999,2 52553  53.2182 175.0242 0001275 100.9285 259.1850 15.08839931 40410,6917.881,95.438,540.628,538.864,0.0
52553.0,STARLINK-3858,PAYLOAD,2023-02-01 08:41:01,15.0884467,0.0001142,53.2149,172.3454,94.2929,265.8194,7.5682e-05,9.17e-06,0.0,0 STARLINK-3858,1 52553U 22051W   23032.36182207  .00000917  00000-0  75682-4 0  9998,2 52553  53.2149 172.3454 0001142  94.2929 265.8194 15.08844670 40579,6917.866,95.437,540.521,538.941,0.0
52553.0,STARLINK-3858,PAYLOAD,2023-02-01 13:27:10,15.08849737,0.0001109,53.2161,171.4545,93.3703,266.7416,0.00010122,1.324e-05,0.0,0 STARLINK-3858,1 52553U 22051W   23032.56053712  .00001324  00000-0  10122-3 0  9998,2 52553  53.2161 171.4545 0001109  93.3703 266.7416 15.08849737 40539,6917.851,95.437,540.483,538.948,0.0
52553.0,STARLINK-3858,PAYLOAD,2023-02-02 13:17:58,15.08837182,0.000135,53.2161,166.995,81.5003,278.6142,-4.9309e-05,-1.073e-05,0.0,0 STARLINK-3858,1 52553U 22051W   23033.55414647 -.00001073  00000-0 -49309-4 0  9999,2 52553  53.2161 166.9950 0001350  81.5003 278.6142 15.08837182 40683,6917.889,95.438,540.688,538.82,0.0
52553.0,STARLINK-3858,PAYLOAD,2023-02-03 11:33:22,15.08836825,0.0001208,53.216,162.8318,88.0213,272.0918,-6.5989e-05,-1.338e-05,0.0,0 STARLINK-3858,1 52553U 22051W   23034.48150674 -.00001338  00000-0 -65989-4 0  9995,2 52553  53.2160 162.8318 0001208  88.0213 272.0918 15.08836825 40820,6917.89,95.438,540.591,538.919,0.0
52553.0,STARLINK-3858,PAYLOAD,2023-02-03 17:54:54,15.08843739,0.0001198,53.2161,161.6415,94.0808,266.0321,-5.1406e-06,-3.7e-06,0.0,0 STARLINK-3858,1 52553U 22051W   23034.74646049 -.00000370  00000-0 -51406-5 0  9995,2 52553  53.2161 161.6415 0001198  94.0808 266.0321 15.08843739 40936,6917.869,95.437,540.563,538.905,0.0
52553.0,STARLINK-3858,PAYLOAD,2023-02-04 06:37:59,15.08814204,0.0001222,53.2161,159.2616,97.3771,262.7359,0.00036249,5.482e-05,0.0,0 STARLINK-3858,1 52553U 22051W   23035.27638705  .00005482  00000-0  36249-3 0  9997,2 52553  53.2161 159.2616 0001222  97.3771 262.7359 15.08814204 41014,6917.959,95.439,540.67,538.979,0.0
52553.0,STARLINK-3858,PAYLOAD,2023-02-04 14:34:54,15.08851367,0.0001488,53.2162,157.7742,102.8689,257.2469,5.2046e-05,5.41e-06,0.0,0 STARLINK-3858,1 52553U 22051W   23035.60757458  .00000541  00000-0  52046-4 0  9996,2 52553  53.2162 157.7742 0001488 102.8689 257.2469 15.08851367 41069,6917.846,95.437,540.74,538.681,0.0
52553.0,STARLINK-3858,PAYLOAD,2023-02-04 17:45:40,15.08848707,0.0001348,53.2162,157.1795,101.7007,258.4136,0.00015696,2.212e-05,0.0,0 STARLINK-3858,1 52553U 22051W   23035.74005285  .00002212  00000-0  15696-3 0  9991,2 52553  53.2162 157.1795 0001348 101.7007 258.4136 15.08848707 41011,6917.854,95.437,540.651,538.786,0.0
52553.0,STARLINK-3858,PAYLOAD,2023-02-05 03:18:00,15.08829965,0.0001194,53.2163,155.3951,110.1014,250.0107,1.9158e-05,1.7e-07,0.0,0 STARLINK-3858,1 52553U 22051W   23036.13750912  .00000017  00000-0  19158-4 0  9998,2 52553  53.2163 155.3951 0001194 110.1014 250.0107 15.08829965 41142,6917.911,95.438,540.602,538.95,0.0
52553.0,STARLINK-3858,PAYLOAD,2023-02-05 14:25:42,15.08839354,0.0001173,53.2163,153.3141,108.4057,251.7063,5.2237e-05,5.44e-06,0.0,0 STARLINK-3858,1 52553U 22051W   23036.60118552  .00000544  00000-0  52237-4 0  9998,2 52553  53.2163 153.3141 0001173 108.4057 251.7063 15.08839354 41215,6917.882,95.438,540.559,538.936,0.0
52553.0,STARLINK-3858,PAYLOAD,2023-02-05 17:36:28,15.08841786,0.000117,53.2163,152.719,110.4329,249.6789,7.7594e-05,9.47e-06,0.0,0 STARLINK-3858,1 52553U 22051W   23036.73366354  .00000947  00000-0  77594-4 0  9997,2 52553  53.2163 152.7190 0001170 110.4329 249.6789 15.08841786 41161,6917.875,95.437,540.549,538.931,0.0
52553.0,STARLINK-3858,PAYLOAD,2023-02-06 12:41:05,15.08851123,0.0001282,53.2153,149.1496,113.6717,246.441,4.6788e-05,4.57e-06,0.0,0 STARLINK-3858,1 52553U 22051W   23037.52853927  .00000457  00000-0  46788-4 0  9999,2 52553  53.2153 149.1496 0001282 113.6717 246.4410 15.08851123 41284,6917.846,95.437,540.598,538.825,0.0
52553.0,STARLINK-3858,PAYLOAD,2023-02-07 14:07:15,15.08853108,0.000106,53.2153,144.3912,114.3003,245.81,0.00029539,4.418e-05,0.0,0 STARLINK-3858,1 52553U 22051W   23038.58837546  .00004418  00000-0  29539-3 0  9990,2 52553  53.2153 144.3912 0001060 114.3003 245.8100 15.08853108 41514,6917.84,95.437,540.439,538.972,0.0
52553.0,STARLINK-3858,PAYLOAD,2023-02-07 17:18:01,15.08861833,0.0001025,53.2156,143.797,90.8945,269.2164,0.00038451,5.841e-05,0.0,0 STARLINK-3858,1 52553U 22051W   23038.72085164  .00005841  00000-0  38451-3 0  9991,2 52553  53.2156 143.7970 0001025  90.8945 269.2164 15.08861833 41466,6917.814,95.436,540.388,538.97,0.0
52553.0,STARLINK-3858,PAYLOAD,2023-02-08 06:01:07,15.08832096,0.0001032,53.216,141.4233,100.7226,259.3882,-0.00023841,-4.079e-05,0.0,0 STARLINK-3858,1 52553U 22051W   23039.25078385 -.00004079  00000-0 -23841-3 0  9998,2 52553  53.2160 141.4233 0001032 100.7226 259.3882 15.08832096 41612,6917.905,95.438,540.483,539.056,0.0
52553.0,STARLINK-3858,PAYLOAD,2023-02-08 13:58:03,15.08850555,0.0001065,53.215,139.9344,103.9561,256.1549,0.00084627,0.0001321,0.0,0 STARLINK-3858,1 52553U 22051W   23039.58198184  .00013210  00000-0  84627-3 0  9998,2 52553  53.2150 139.9344 0001065 103.9561 256.1549 15.08850555 41669,6917.848,95.437,540.45,538.976,0.0
52553.0,STARLINK-3858,PAYLOAD,2023-02-09 05:51:55,15.08835277,0.0001173,53.2139,136.961,81.7031,278.4094,0.00089081,0.00013916,0.0,0 STARLINK-3858,1 52553U 22051W   23040.24438936  .00013916  00000-0  89081-3 0  9997,2 52553  53.2139 136.9610 0001173  81.7031 278.4094 15.08835277 41761,6917.895,95.438,540.571,538.948,0.0
52553.0,STARLINK-3858,PAYLOAD,2023-02-09 10:38:04,15.08844885,0.0001154,53.214,136.0688,73.8465,286.2654,0.0019945,0.00031601,0.0,0 STARLINK-3858,1 52553U 22051W   23040.44310961  .00031601  00000-0  19945-2 0  9998,2 52553  53.2140 136.0688 0001154  73.8465 286.2654 15.08844885 41721,6917.865,95.437,540.529,538.932,0.0
52553.0,STARLINK-3858,PAYLOAD,2023-02-09 13:48:51,15.08846763,0.0001224,53.2138,135.4738,70.3657,289.7467,0.0025108,0.00039905,0.0,0 STARLINK-3858,1 52553U 22051W   23040.57559106  .00039905  00000-0  25108-2 0  9991,2 52553  53.2138 135.4738 0001224  70.3657 289.7467 15.08846763 41749,6917.86,95.437,540.571,538.878,0.0
52553.0,STARLINK-3858,PAYLOAD,2023-02-09 23:21:10,15.08843371,0.0001159,53.2155,133.6894,85.2864,274.8261,0.0012355,0.00019431,0.0,0 STARLINK-3858,1 52553U 22051W   23040.97303284  .00019431  00000-0  12355-2 0  9991,2 52553  53.2155 133.6894 0001159  85.2864 274.8261 15.08843371 41876,6917.87,95.437,540.537,538.933,0.0
52553.0,STARLINK-3858,PAYLOAD,2023-02-10 13:39:38,15.08868872,0.000104,53.2138,131.0133,88.3646,271.7465,0.0034696,0.00055409,0.0,0 STARLINK-3858,1 52553U 22051W   23041.56919294  .00055409  00000-0  34696-2 0  9998,2 52553  53.2138 131.0133 0001040  88.3646 271.7465 15.08868872 41893,6917.792,95.436,540.377,538.938,0.0
52553.0,STARLINK-3858,PAYLOAD,2023-02-10 23:11:57,15.08848648,0.0001268,53.2148,129.2298,98.2227,261.8909,0.0025345,0.00040289,0.0,0 STARLINK-3858,1 52553U 22051W   23041.96663405  .00040289  00000-0  25345-2 0  9993,2 52553  53.2148 129.2298 0001268  98.2227 261.8909 15.08848648 42020,6917.854,95.437,540.596,538.842,0.0
